{
  "type": "FeatureCollection",
  "features": [
    {
      "type": "Feature",
      "properties": {
        "norad_id": 40938,
        "name": "BEIDOU-3S IGSO-2S (C56)",
        "group": "gnss",
        "lat": 30.70938740348524,
        "lon": 50.54309598340803,
        "alt_km": 35620.44021155878,
        "timestamp": "2025-12-14T14:39:29.613138+00:00",
        "meta_object_name": "BEIDOU-3S IGSO-2S (C56)",
        "meta_object_id": "2015-053A",
        "meta_epoch": "2025-12-13T17:20:05.936352",
        "meta_mean_motion": 1.00270015,
        "meta_eccentricity": 0.00607751,
        "meta_inclination": 49.509,
        "meta_ra_of_asc_node": 260.9931,
        "meta_arg_of_pericenter": 188.8137,
        "meta_mean_anomaly": 348.8662,
        "meta_ephemeris_type": 0,
        "meta_classification_type": "U",
        "meta_norad_cat_id": 40938,
        "meta_element_set_no": 999,
        "meta_rev_at_epoch": 3749,
        "meta_bstar": 0,
        "meta_mean_motion_dot": -1.56e-06,
        "meta_mean_motion_ddot": 0,
        "tle_line1": "1 40938U 15053A   25347.72229093 -.00000156  00000+0  00000+0 0  9994",
        "tle_line2": "2 40938  49.5090 260.9931 0060775 188.8137 348.8662  1.00270015 37490"
      },
      "geometry": {
        "type": "Point",
        "coordinates": [
          50.54309598340803,
          30.70938740348524
        ]
      }
    },
    {
      "type": "Feature",
      "properties": {
        "norad_id": 41019,
        "name": "GPS BIIF-11 (PRN 10)",
        "group": "gnss",
        "lat": -31.898839299710872,
        "lon": -118.05703370733596,
        "alt_km": 19896.151218272058,
        "timestamp": "2025-12-14T14:39:29.613154+00:00",
        "meta_object_name": "GPS BIIF-11 (PRN 10)",
        "meta_object_id": "2015-062A",
        "meta_epoch": "2025-12-12T19:26:17.014560",
        "meta_mean_motion": 2.00567164,
        "meta_eccentricity": 0.01108438,
        "meta_inclination": 56.8322,
        "meta_ra_of_asc_node": 37.9995,
        "meta_arg_of_pericenter": 229.9503,
        "meta_mean_anomaly": 129.1214,
        "meta_ephemeris_type": 0,
        "meta_classification_type": "U",
        "meta_norad_cat_id": 41019,
        "meta_element_set_no": 999,
        "meta_rev_at_epoch": 7409,
        "meta_bstar": 0,
        "meta_mean_motion_dot": -9.6e-07,
        "meta_mean_motion_ddot": 0,
        "tle_line1": "1 41019U 15062A   25346.80991915 -.00000096  00000+0  00000+0 0  9995",
        "tle_line2": "2 41019  56.8322  37.9995 0110843 229.9503 129.1214  2.00567164 74093"
      },
      "geometry": {
        "type": "Point",
        "coordinates": [
          -118.05703370733596,
          -31.898839299710872
        ]
      }
    },
    {
      "type": "Feature",
      "properties": {
        "norad_id": 41028,
        "name": "GSAT-15 (GAGAN/PRN 139)",
        "group": "gnss",
        "lat": 0.04606814058888035,
        "lon": 36.897761005449624,
        "alt_km": 35797.76428725981,
        "timestamp": "2025-12-14T14:39:29.613166+00:00",
        "meta_object_name": "GSAT-15 (GAGAN/PRN 139)",
        "meta_object_id": "2015-065A",
        "meta_epoch": "2025-12-13T22:27:16.320384",
        "meta_mean_motion": 1.00271702,
        "meta_eccentricity": 0.00028137,
        "meta_inclination": 0.0427,
        "meta_ra_of_asc_node": 266.5173,
        "meta_arg_of_pericenter": 322.9229,
        "meta_mean_anomaly": 283.7397,
        "meta_ephemeris_type": 0,
        "meta_classification_type": "U",
        "meta_norad_cat_id": 41028,
        "meta_element_set_no": 999,
        "meta_rev_at_epoch": 3694,
        "meta_bstar": 0,
        "meta_mean_motion_dot": -2.41e-06,
        "meta_mean_motion_ddot": 0,
        "tle_line1": "1 41028U 15065A   25347.93560556 -.00000241  00000+0  00000+0 0  9998",
        "tle_line2": "2 41028   0.0427 266.5173 0002813 322.9229 283.7397  1.00271702 36944"
      },
      "geometry": {
        "type": "Point",
        "coordinates": [
          36.897761005449624,
          0.04606814058888035
        ]
      }
    },
    {
      "type": "Feature",
      "properties": {
        "norad_id": 41174,
        "name": "GSAT0209 (GALILEO 12)",
        "group": "gnss",
        "lat": -26.194167946308735,
        "lon": -54.09142525806051,
        "alt_km": 23230.96758740753,
        "timestamp": "2025-12-14T14:39:29.613178+00:00",
        "meta_object_name": "GSAT0209 (GALILEO 12)",
        "meta_object_id": "2015-079A",
        "meta_epoch": "2025-12-10T17:53:22.611840",
        "meta_mean_motion": 1.70474458,
        "meta_eccentricity": 0.00024095,
        "meta_inclination": 55.7117,
        "meta_ra_of_asc_node": 106.4357,
        "meta_arg_of_pericenter": 351.4479,
        "meta_mean_anomaly": 8.5179,
        "meta_ephemeris_type": 0,
        "meta_classification_type": "U",
        "meta_norad_cat_id": 41174,
        "meta_element_set_no": 999,
        "meta_rev_at_epoch": 6156,
        "meta_bstar": 0,
        "meta_mean_motion_dot": 1.1e-07,
        "meta_mean_motion_ddot": 0,
        "tle_line1": "1 41174U 15079A   25344.74540060  .00000011  00000+0  00000+0 0  9993",
        "tle_line2": "2 41174  55.7117 106.4357 0002409 351.4479   8.5179  1.70474458 61567"
      },
      "geometry": {
        "type": "Point",
        "coordinates": [
          -54.09142525806051,
          -26.194167946308735
        ]
      }
    },
    {
      "type": "Feature",
      "properties": {
        "norad_id": 41175,
        "name": "GSAT0208 (GALILEO 11)",
        "group": "gnss",
        "lat": 53.67905190079759,
        "lon": 174.32806031759495,
        "alt_km": 23214.84916011295,
        "timestamp": "2025-12-14T14:39:29.613191+00:00",
        "meta_object_name": "GSAT0208 (GALILEO 11)",
        "meta_object_id": "2015-079B",
        "meta_epoch": "2025-12-12T17:24:26.771040",
        "meta_mean_motion": 1.70474307,
        "meta_eccentricity": 0.00018806,
        "meta_inclination": 55.7111,
        "meta_ra_of_asc_node": 106.3784,
        "meta_arg_of_pericenter": 358.3144,
        "meta_mean_anomaly": 1.6545,
        "meta_ephemeris_type": 0,
        "meta_classification_type": "U",
        "meta_norad_cat_id": 41175,
        "meta_element_set_no": 999,
        "meta_rev_at_epoch": 6201,
        "meta_bstar": 0,
        "meta_mean_motion_dot": 4e-08,
        "meta_mean_motion_ddot": 0,
        "tle_line1": "1 41175U 15079B   25346.72530985  .00000004  00000+0  00000+0 0  9991",
        "tle_line2": "2 41175  55.7111 106.3784 0001880 358.3144   1.6545  1.70474307 62017"
      },
      "geometry": {
        "type": "Point",
        "coordinates": [
          174.32806031759495,
          53.67905190079759
        ]
      }
    },
    {
      "type": "Feature",
      "properties": {
        "norad_id": 41241,
        "name": "IRNSS-1E",
        "group": "gnss",
        "lat": -3.8774269356770557,
        "lon": 56.39973987424692,
        "alt_km": 35875.659039712555,
        "timestamp": "2025-12-14T14:39:29.613203+00:00",
        "meta_object_name": "IRNSS-1E",
        "meta_object_id": "2016-003A",
        "meta_epoch": "2025-12-12T20:06:57.569184",
        "meta_mean_motion": 1.00273817,
        "meta_eccentricity": 0.00218004,
        "meta_inclination": 32.8255,
        "meta_ra_of_asc_node": 62.4521,
        "meta_arg_of_pericenter": 187.6915,
        "meta_mean_anomaly": 245.1684,
        "meta_ephemeris_type": 0,
        "meta_classification_type": "U",
        "meta_norad_cat_id": 41241,
        "meta_element_set_no": 999,
        "meta_rev_at_epoch": 3621,
        "meta_bstar": 0,
        "meta_mean_motion_dot": -3.05e-06,
        "meta_mean_motion_ddot": 0,
        "tle_line1": "1 41241U 16003A   25346.83816631 -.00000305  00000+0  00000+0 0  9995",
        "tle_line2": "2 41241  32.8255  62.4521 0021800 187.6915 245.1684  1.00273817 36218"
      },
      "geometry": {
        "type": "Point",
        "coordinates": [
          56.39973987424692,
          -3.8774269356770557
        ]
      }
    },
    {
      "type": "Feature",
      "properties": {
        "norad_id": 41328,
        "name": "GPS BIIF-12 (PRN 32)",
        "group": "gnss",
        "lat": 17.358016511324408,
        "lon": -95.66871340019247,
        "alt_km": 20156.119073111542,
        "timestamp": "2025-12-14T14:39:29.613215+00:00",
        "meta_object_name": "GPS BIIF-12 (PRN 32)",
        "meta_object_id": "2016-007A",
        "meta_epoch": "2025-12-13T09:23:04.524576",
        "meta_mean_motion": 2.00560713,
        "meta_eccentricity": 0.00921862,
        "meta_inclination": 55.4066,
        "meta_ra_of_asc_node": 96.8311,
        "meta_arg_of_pericenter": 243.5856,
        "meta_mean_anomaly": 115.4531,
        "meta_ephemeris_type": 0,
        "meta_classification_type": "U",
        "meta_norad_cat_id": 41328,
        "meta_element_set_no": 999,
        "meta_rev_at_epoch": 7211,
        "meta_bstar": 0,
        "meta_mean_motion_dot": -1.9e-07,
        "meta_mean_motion_ddot": 0,
        "tle_line1": "1 41328U 16007A   25347.39102459 -.00000019  00000+0  00000+0 0  9995",
        "tle_line2": "2 41328  55.4066  96.8311 0092186 243.5856 115.4531  2.00560713 72118"
      },
      "geometry": {
        "type": "Point",
        "coordinates": [
          -95.66871340019247,
          17.358016511324408
        ]
      }
    }
  ]
}